IRIDIUM 126             
1 42809U 17039G   24304.09294649  .00001420  00000+0  49974-3 0  9991
2 42809  86.3972 242.2748 0002289  90.0836 270.0622 14.34222054384669
IRIDIUM 124             
1 42810U 17039H   24303.98578501  .00001678  00000+0  49258-3 0  9992
2 42810  86.4551 179.1549 0002361  72.3944 287.7515 14.43293067389265
IRIDIUM 128             
1 42811U 17039J   24304.15344786  .00001216  00000+0  42685-3 0  9994
2 42811  86.3921 273.7846 0002526  87.6093 272.5391 14.34223965384690
IRIDIUM 121             
1 42812U 17039K   24304.18174150  .00001463  00000+0  51536-3 0  9993
2 42812  86.3973 242.2613 0002120  82.0010 278.1427 14.34220413384663
IRIDIUM 133             
1 42955U 17061A   24303.62701891  .00000608  00000+0  21000-3 0  9995
2 42955  86.3920 274.1082 0002199  86.9661 273.1786 14.34220327369411
IRIDIUM 100             
1 42956U 17061B   24303.62067739  .00001200  00000+0  42133-3 0  9991
2 42956  86.3921 274.0436 0002458  85.5362 274.6115 14.34220830369417
IRIDIUM 122             
1 42957U 17061C   24304.21687672  .00000981  00000+0  34329-3 0  9995
2 42957  86.3922 273.7926 0002381  90.0236 270.1232 14.34222973369506
IRIDIUM 129             
1 42958U 17061D   24304.38178094  .00001430  00000+0  50357-3 0  9996
2 42958  86.3961 273.7807 0002378 103.6417 256.5044 14.34216639369541
